{"type": "FeatureCollection", "meta": {"city": "Mysuru City Corporation", "wards": 65, "zones": 9, "total_waste_tpd": 600.0, "area_km2": 130.2, "note": "Ward polygons are indicative Voronoi partitions of the MCC limit, not survey boundaries."}, "features": [{"type": "Feature", "properties": {"ward_no": 1, "name": "Jayalakshmipuram", "zone": 8, "zone_name": "Zone 8 \u00b7 MCC zonal office 8", "area_km2": 1.734, "population": 24590, "households": 5653, "waste_tpd": 16.14, "wet_share": 0.558, "dry_share": 0.402, "inert_share": 0.04, "density_t_km2": 9.31, "road_km": 28.0, "narrow_lane_factor": 1.162, "segregation_rate": 0.599, "centroid": [76.628892, 12.311361], "collection_points": 185}, "geometry": {"type": "Polygon", "coordinates": [[[76.6248399730078, 12.302990320462598], [76.62038442944714, 12.311391178868034], [76.63186360920011, 12.319926218189597], [76.63248196317335, 12.319845584496097], [76.63572860349875, 12.309806415192897], [76.62654371277097, 12.30301150795384], [76.6248399730078, 12.302990320462598]]]}}, {"type": "Feature", "properties": {"ward_no": 2, "name": "Vijayanagar 1st Stage", "zone": 2, "zone_name": "Zone 2 \u00b7 MCC zonal office 2", "area_km2": 1.488, "population": 19651, "households": 4517, "waste_tpd": 13.91, "wet_share": 0.581, "dry_share": 0.379, "inert_share": 0.04, "density_t_km2": 9.35, "road_km": 21.3, "narrow_lane_factor": 1.438, "segregation_rate": 0.441, "centroid": [76.636385, 12.286657], "collection_points": 166}, "geometry": {"type": "Polygon", "coordinates": [[[76.64371895724683, 12.285952174362613], [76.64171039845081, 12.281827227465886], [76.63170284463979, 12.281333852173718], [76.62817211521059, 12.286562859597149], [76.6369075259487, 12.294452613788978], [76.64371895724683, 12.285952174362613]]]}}, {"type": "Feature", "properties": {"ward_no": 3, "name": "Vijayanagar 2nd Stage", "zone": 9, "zone_name": "Zone 9 \u00b7 MCC zonal office 9", "area_km2": 2.48, "population": 16309, "households": 3749, "waste_tpd": 8.94, "wet_share": 0.597, "dry_share": 0.363, "inert_share": 0.04, "density_t_km2": 3.6, "road_km": 30.8, "narrow_lane_factor": 1.085, "segregation_rate": 0.576, "centroid": [76.601798, 12.289729], "collection_points": 141}, "geometry": {"type": "Polygon", "coordinates": [[[76.60872370743004, 12.296519887784907], [76.61052327329539, 12.289540770039936], [76.6053565472693, 12.28205113243703], [76.5918862941297, 12.283793089427613], [76.59438102592672, 12.289713214578319], [76.59585471207073, 12.2958], [76.59503866105487, 12.297063885043583], [76.60872370743004, 12.296519887784907]]]}}, {"type": "Feature", "properties": {"ward_no": 4, "name": "Hebbal", "zone": 3, "zone_name": "Zone 3 \u00b7 MCC zonal office 3", "area_km2": 1.745, "population": 14456, "households": 3323, "waste_tpd": 8.08, "wet_share": 0.568, "dry_share": 0.392, "inert_share": 0.04, "density_t_km2": 4.63, "road_km": 22.5, "narrow_lane_factor": 1.077, "segregation_rate": 0.726, "centroid": [76.681668, 12.31345], "collection_points": 115}, "geometry": {"type": "Polygon", "coordinates": [[[76.67721780111516, 12.318622001165332], [76.68403852576132, 12.321715336738716], [76.6876558354867, 12.319997384222285], [76.6888707428703, 12.31034250381814], [76.68186083555943, 12.305634480371635], [76.67634018491782, 12.309886480971752], [76.67721780111516, 12.318622001165332]]]}}, {"type": "Feature", "properties": {"ward_no": 5, "name": "Metagalli", "zone": 3, "zone_name": "Zone 3 \u00b7 MCC zonal office 3", "area_km2": 1.554, "population": 13004, "households": 2989, "waste_tpd": 7.78, "wet_share": 0.595, "dry_share": 0.365, "inert_share": 0.04, "density_t_km2": 5.0, "road_km": 18.8, "narrow_lane_factor": 1.115, "segregation_rate": 0.538, "centroid": [76.674255, 12.303825], "collection_points": 105}, "geometry": {"type": "Polygon", "coordinates": [[[76.67634018491782, 12.309886480971752], [76.68186083555943, 12.305634480371635], [76.68141085755379, 12.30062066559865], [76.67394758846991, 12.296862542613919], [76.66776988030716, 12.302080350168168], [76.66818805315042, 12.308021950351964], [76.67634018491782, 12.309886480971752]]]}}, {"type": "Feature", "properties": {"ward_no": 6, "name": "Bogadi North", "zone": 6, "zone_name": "Zone 6 \u00b7 MCC zonal office 6", "area_km2": 1.345, "population": 17082, "households": 3927, "waste_tpd": 12.32, "wet_share": 0.551, "dry_share": 0.409, "inert_share": 0.04, "density_t_km2": 9.16, "road_km": 20.7, "narrow_lane_factor": 1.303, "segregation_rate": 0.447, "centroid": [76.652226, 12.299803], "collection_points": 128}, "geometry": {"type": "Polygon", "coordinates": [[[76.6595626719937, 12.29720122074707], [76.65945279195257, 12.296829637367049], [76.65196299731589, 12.29242685934833], [76.64515785479968, 12.300331949145642], [76.65308857749116, 12.306599998331547], [76.6548862631569, 12.306117368924816], [76.6595626719937, 12.29720122074707]]]}}, {"type": "Feature", "properties": {"ward_no": 7, "name": "Bogadi South", "zone": 4, "zone_name": "Zone 4 \u00b7 MCC zonal office 4", "area_km2": 2.46, "population": 14779, "households": 3397, "waste_tpd": 7.83, "wet_share": 0.634, "dry_share": 0.326, "inert_share": 0.04, "density_t_km2": 3.18, "road_km": 28.6, "narrow_lane_factor": 1.064, "segregation_rate": 0.75, "centroid": [76.584191, 12.321463], "collection_points": 110}, "geometry": {"type": "Polygon", "coordinates": [[[76.59086735774324, 12.328071893434899], [76.59233131585225, 12.318471832995876], [76.58276003600768, 12.311509319485658], [76.57506861718159, 12.32328727309236], [76.57466993161889, 12.328491124663106], [76.59086735774324, 12.328071893434899]]]}}, {"type": "Feature", "properties": {"ward_no": 8, "name": "Srirampura", "zone": 1, "zone_name": "Zone 1 \u00b7 MCC zonal office 1", "area_km2": 1.214, "population": 11317, "households": 2602, "waste_tpd": 6.79, "wet_share": 0.625, "dry_share": 0.335, "inert_share": 0.04, "density_t_km2": 5.59, "road_km": 16.2, "narrow_lane_factor": 1.201, "segregation_rate": 0.594, "centroid": [76.655746, 12.312915], "collection_points": 73}, "geometry": {"type": "Polygon", "coordinates": [[[76.6548862631569, 12.306117368924816], [76.65308857749116, 12.306599998331547], [76.64836934312667, 12.314603391697252], [76.6576776264413, 12.3193654275332], [76.66196995066215, 12.311169240206567], [76.6548862631569, 12.306117368924816]]]}}, {"type": "Feature", "properties": {"ward_no": 9, "name": "Kuvempunagar East", "zone": 7, "zone_name": "Zone 7 \u00b7 MCC zonal office 7", "area_km2": 2.548, "population": 15739, "households": 3618, "waste_tpd": 8.81, "wet_share": 0.581, "dry_share": 0.379, "inert_share": 0.04, "density_t_km2": 3.46, "road_km": 40.8, "narrow_lane_factor": 1.109, "segregation_rate": 0.696, "centroid": [76.599962, 12.275531], "collection_points": 120}, "geometry": {"type": "Polygon", "coordinates": [[[76.6053565472693, 12.28205113243703], [76.60893022220513, 12.273699397196152], [76.60104743758973, 12.265386304317495], [76.59592267967543, 12.269792114573635], [76.59157789621182, 12.275366750020167], [76.5913672519407, 12.282561375974058], [76.5918862941297, 12.283793089427613], [76.6053565472693, 12.28205113243703]]]}}, {"type": "Feature", "properties": {"ward_no": 10, "name": "Kuvempunagar West", "zone": 2, "zone_name": "Zone 2 \u00b7 MCC zonal office 2", "area_km2": 1.605, "population": 22075, "households": 5075, "waste_tpd": 15.89, "wet_share": 0.581, "dry_share": 0.379, "inert_share": 0.04, "density_t_km2": 9.9, "road_km": 18.2, "narrow_lane_factor": 1.28, "segregation_rate": 0.384, "centroid": [76.644629, 12.293264], "collection_points": 152}, "geometry": {"type": "Polygon", "coordinates": [[[76.63697123862785, 12.295130475717576], [76.64255680260247, 12.300636489865328], [76.64515785479968, 12.300331949145642], [76.65196299731589, 12.29242685934833], [76.6507040592189, 12.288253288541048], [76.64371895724683, 12.285952174362613], [76.6369075259487, 12.294452613788978], [76.63697123862785, 12.295130475717576]]]}}, {"type": "Feature", "properties": {"ward_no": 11, "name": "Ramakrishnanagar", "zone": 6, "zone_name": "Zone 6 \u00b7 MCC zonal office 6", "area_km2": 2.09, "population": 16083, "households": 3697, "waste_tpd": 9.96, "wet_share": 0.573, "dry_share": 0.387, "inert_share": 0.04, "density_t_km2": 4.76, "road_km": 25.0, "narrow_lane_factor": 1.11, "segregation_rate": 0.655, "centroid": [76.662136, 12.276329], "collection_points": 107}, "geometry": {"type": "Polygon", "coordinates": [[[76.65394093369056, 12.273721271479726], [76.6564738540928, 12.281607592180828], [76.66604047907326, 12.284310938645335], [76.67105744509871, 12.27305289503994], [76.66253787742288, 12.268945519123406], [76.65559686290585, 12.27121738773049], [76.65394093369056, 12.273721271479726]]]}}, {"type": "Feature", "properties": {"ward_no": 12, "name": "Saraswathipuram", "zone": 8, "zone_name": "Zone 8 \u00b7 MCC zonal office 8", "area_km2": 1.339, "population": 16311, "households": 3750, "waste_tpd": 10.89, "wet_share": 0.61, "dry_share": 0.35, "inert_share": 0.04, "density_t_km2": 8.13, "road_km": 17.0, "narrow_lane_factor": 1.235, "segregation_rate": 0.467, "centroid": [76.646276, 12.307331], "collection_points": 123}, "geometry": {"type": "Polygon", "coordinates": [[[76.64515785479968, 12.300331949145642], [76.64255680260247, 12.300636489865328], [76.63945108716116, 12.308243355049674], [76.64795941232279, 12.314748449582106], [76.64836934312667, 12.314603391697252], [76.65308857749116, 12.306599998331547], [76.64515785479968, 12.300331949145642]]]}}, {"type": "Feature", "properties": {"ward_no": 13, "name": "Yadavagiri", "zone": 8, "zone_name": "Zone 8 \u00b7 MCC zonal office 8", "area_km2": 1.725, "population": 10186, "households": 2342, "waste_tpd": 5.59, "wet_share": 0.564, "dry_share": 0.396, "inert_share": 0.04, "density_t_km2": 3.24, "road_km": 23.6, "narrow_lane_factor": 1.051, "segregation_rate": 0.818, "centroid": [76.622411, 12.348366], "collection_points": 66}, "geometry": {"type": "Polygon", "coordinates": [[[76.6256663465533, 12.341542953819319], [76.61921507347165, 12.341568003818002], [76.61394245610379, 12.350670467113115], [76.6186337740105, 12.353277477241502], [76.62693650244293, 12.354799325343814], [76.63029681707212, 12.353114351384747], [76.6256663465533, 12.341542953819319]]]}}, {"type": "Feature", "properties": {"ward_no": 14, "name": "Gokulam", "zone": 1, "zone_name": "Zone 1 \u00b7 MCC zonal office 1", "area_km2": 1.28, "population": 9672, "households": 2223, "waste_tpd": 5.69, "wet_share": 0.599, "dry_share": 0.361, "inert_share": 0.04, "density_t_km2": 4.44, "road_km": 16.0, "narrow_lane_factor": 1.158, "segregation_rate": 0.605, "centroid": [76.65506, 12.330445], "collection_points": 75}, "geometry": {"type": "Polygon", "coordinates": [[[76.65971080854845, 12.32395830094159], [76.65907675887318, 12.323523922408233], [76.64774136573809, 12.32830802172807], [76.64706022062823, 12.330124944094878], [76.64868298253454, 12.33447140114516], [76.6529471027537, 12.33329613871143], [76.66053846662228, 12.33592995989949], [76.6605863437704, 12.335952577708976], [76.65971080854845, 12.32395830094159]]]}}, {"type": "Feature", "properties": {"ward_no": 15, "name": "Devaraja Mohalla", "zone": 7, "zone_name": "Zone 7 \u00b7 MCC zonal office 7", "area_km2": 3.127, "population": 22864, "households": 5256, "waste_tpd": 12.86, "wet_share": 0.55, "dry_share": 0.41, "inert_share": 0.04, "density_t_km2": 4.11, "road_km": 41.6, "narrow_lane_factor": 1.101, "segregation_rate": 0.66, "centroid": [76.611236, 12.264842], "collection_points": 188}, "geometry": {"type": "Polygon", "coordinates": [[[76.60893022220513, 12.273699397196152], [76.61767423590614, 12.272351033278845], [76.62142362223433, 12.268696930317544], [76.61348285977459, 12.2547523251919], [76.60437655188244, 12.25414524969483], [76.6040966198438, 12.25861589102804], [76.60121579814093, 12.265241562915925], [76.60104743758973, 12.265386304317495], [76.60893022220513, 12.273699397196152]]]}}, {"type": "Feature", "properties": {"ward_no": 16, "name": "Mandi Mohalla", "zone": 2, "zone_name": "Zone 2 \u00b7 MCC zonal office 2", "area_km2": 1.686, "population": 23851, "households": 5483, "waste_tpd": 14.92, "wet_share": 0.595, "dry_share": 0.365, "inert_share": 0.04, "density_t_km2": 8.85, "road_km": 18.6, "narrow_lane_factor": 1.27, "segregation_rate": 0.412, "centroid": [76.629099, 12.294723], "collection_points": 183}, "geometry": {"type": "Polygon", "coordinates": [[[76.6248399730078, 12.302990320462598], [76.62654371277097, 12.30301150795384], [76.63697123862785, 12.295130475717576], [76.6369075259487, 12.294452613788978], [76.62817211521059, 12.286562859597149], [76.62406977266384, 12.287627023243166], [76.62312995510919, 12.300594156316356], [76.6248399730078, 12.302990320462598]]]}}, {"type": "Feature", "properties": {"ward_no": 17, "name": "Ashokapuram", "zone": 6, "zone_name": "Zone 6 \u00b7 MCC zonal office 6", "area_km2": 1.416, "population": 14452, "households": 3322, "waste_tpd": 8.53, "wet_share": 0.554, "dry_share": 0.406, "inert_share": 0.04, "density_t_km2": 6.02, "road_km": 15.8, "narrow_lane_factor": 1.17, "segregation_rate": 0.512, "centroid": [76.661593, 12.304716], "collection_points": 104}, "geometry": {"type": "Polygon", "coordinates": [[[76.66818805315042, 12.308021950351964], [76.66776988030716, 12.302080350168168], [76.6595626719937, 12.29720122074707], [76.6548862631569, 12.306117368924816], [76.66196995066215, 12.311169240206567], [76.66594582180417, 12.310382208897868], [76.66818805315042, 12.308021950351964]]]}}, {"type": "Feature", "properties": {"ward_no": 18, "name": "Chamundipuram", "zone": 7, "zone_name": "Zone 7 \u00b7 MCC zonal office 7", "area_km2": 2.887, "population": 16495, "households": 3792, "waste_tpd": 9.47, "wet_share": 0.598, "dry_share": 0.362, "inert_share": 0.04, "density_t_km2": 3.28, "road_km": 44.8, "narrow_lane_factor": 1.117, "segregation_rate": 0.696, "centroid": [76.623306, 12.257968], "collection_points": 109}, "geometry": {"type": "Polygon", "coordinates": [[[76.62142362223433, 12.268696930317544], [76.62380586416899, 12.268503153971436], [76.630942307155, 12.260070495139399], [76.62880779306461, 12.248396121169087], [76.62516266487806, 12.24549467306985], [76.61348285977459, 12.2547523251919], [76.62142362223433, 12.268696930317544]]]}}, {"type": "Feature", "properties": {"ward_no": 19, "name": "Vidyaranyapuram", "zone": 8, "zone_name": "Zone 8 \u00b7 MCC zonal office 8", "area_km2": 1.723, "population": 10535, "households": 2422, "waste_tpd": 5.88, "wet_share": 0.585, "dry_share": 0.375, "inert_share": 0.04, "density_t_km2": 3.42, "road_km": 22.3, "narrow_lane_factor": 1.135, "segregation_rate": 0.601, "centroid": [76.622358, 12.334745], "collection_points": 73}, "geometry": {"type": "Polygon", "coordinates": [[[76.61486152958848, 12.335342025150542], [76.61921507347165, 12.341568003818002], [76.6256663465533, 12.341542953819319], [76.63000739059622, 12.336799284394003], [76.62371335162564, 12.327179579447224], [76.61997174316905, 12.32706949107752], [76.61486152958848, 12.335342025150542]]]}}, {"type": "Feature", "properties": {"ward_no": 20, "name": "Rajivnagar", "zone": 9, "zone_name": "Zone 9 \u00b7 MCC zonal office 9", "area_km2": 1.954, "population": 21986, "households": 5054, "waste_tpd": 13.53, "wet_share": 0.608, "dry_share": 0.352, "inert_share": 0.04, "density_t_km2": 6.93, "road_km": 22.0, "narrow_lane_factor": 1.237, "segregation_rate": 0.638, "centroid": [76.615637, 12.304331], "collection_points": 157}, "geometry": {"type": "Polygon", "coordinates": [[[76.60885763745257, 12.307890844333215], [76.6183503380431, 12.312349301325176], [76.62038442944714, 12.311391178868034], [76.6248399730078, 12.302990320462598], [76.62312995510919, 12.300594156316356], [76.60924744025175, 12.297349698829636], [76.60885763745257, 12.307890844333215]]]}}, {"type": "Feature", "properties": {"ward_no": 21, "name": "Kesare", "zone": 5, "zone_name": "Zone 5 \u00b7 MCC zonal office 5", "area_km2": 2.323, "population": 14075, "households": 3236, "waste_tpd": 7.76, "wet_share": 0.616, "dry_share": 0.344, "inert_share": 0.04, "density_t_km2": 3.34, "road_km": 36.9, "narrow_lane_factor": 1.061, "segregation_rate": 0.695, "centroid": [76.649572, 12.249783], "collection_points": 104}, "geometry": {"type": "Polygon", "coordinates": [[[76.64135437515885, 12.248017056388868], [76.64607193023635, 12.258287185089205], [76.65032496580339, 12.258589654365982], [76.65484056844006, 12.25581009504682], [76.65707482688282, 12.244795934088932], [76.6506928292516, 12.242342348645202], [76.64742471103735, 12.239370798197534], [76.64135437515885, 12.248017056388868]]]}}, {"type": "Feature", "properties": {"ward_no": 22, "name": "Bannimantap A", "zone": 8, "zone_name": "Zone 8 \u00b7 MCC zonal office 8", "area_km2": 1.468, "population": 11366, "households": 2613, "waste_tpd": 6.55, "wet_share": 0.625, "dry_share": 0.335, "inert_share": 0.04, "density_t_km2": 4.46, "road_km": 23.2, "narrow_lane_factor": 1.136, "segregation_rate": 0.665, "centroid": [76.641227, 12.335609], "collection_points": 75}, "geometry": {"type": "Polygon", "coordinates": [[[76.64085361832399, 12.343739352741956], [76.64258006252291, 12.341532538536281], [76.6476305384219, 12.334761472242038], [76.64868298253454, 12.33447140114516], [76.64706022062823, 12.330124944094878], [76.6373921182324, 12.330498307177622], [76.63345336203129, 12.336451297446184], [76.64085361832399, 12.343739352741956]]]}}, {"type": "Feature", "properties": {"ward_no": 23, "name": "Bannimantap B", "zone": 2, "zone_name": "Zone 2 \u00b7 MCC zonal office 2", "area_km2": 1.884, "population": 14495, "households": 3332, "waste_tpd": 8.69, "wet_share": 0.611, "dry_share": 0.349, "inert_share": 0.04, "density_t_km2": 4.61, "road_km": 28.6, "narrow_lane_factor": 1.131, "segregation_rate": 0.506, "centroid": [76.634279, 12.267254], "collection_points": 122}, "geometry": {"type": "Polygon", "coordinates": [[[76.63005015350096, 12.27343549770299], [76.64131741293974, 12.27025759730815], [76.64128911953195, 12.262743451403372], [76.630942307155, 12.260070495139399], [76.62380586416899, 12.268503153971436], [76.63005015350096, 12.27343549770299]]]}}, {"type": "Feature", "properties": {"ward_no": 24, "name": "Udayagiri", "zone": 6, "zone_name": "Zone 6 \u00b7 MCC zonal office 6", "area_km2": 1.791, "population": 17951, "households": 4127, "waste_tpd": 10.99, "wet_share": 0.582, "dry_share": 0.378, "inert_share": 0.04, "density_t_km2": 6.13, "road_km": 20.8, "narrow_lane_factor": 1.284, "segregation_rate": 0.551, "centroid": [76.658536, 12.289069], "collection_points": 128}, "geometry": {"type": "Polygon", "coordinates": [[[76.65945279195257, 12.296829637367049], [76.66703300430537, 12.28652606019204], [76.66604047907326, 12.284310938645335], [76.6564738540928, 12.281607592180828], [76.6507040592189, 12.288253288541048], [76.65196299731589, 12.29242685934833], [76.65945279195257, 12.296829637367049]]]}}, {"type": "Feature", "properties": {"ward_no": 25, "name": "Azeez Sait Nagar", "zone": 1, "zone_name": "Zone 1 \u00b7 MCC zonal office 1", "area_km2": 1.834, "population": 14822, "households": 3407, "waste_tpd": 8.3, "wet_share": 0.606, "dry_share": 0.354, "inert_share": 0.04, "density_t_km2": 4.52, "road_km": 27.7, "narrow_lane_factor": 1.099, "segregation_rate": 0.575, "centroid": [76.665254, 12.329701], "collection_points": 100}, "geometry": {"type": "Polygon", "coordinates": [[[76.67249154851613, 12.331955857310158], [76.66900478254237, 12.323079938476337], [76.65971080854845, 12.32395830094159], [76.6605863437704, 12.335952577708976], [76.66818489421836, 12.339542235262552], [76.67249154851613, 12.331955857310158]]]}}, {"type": "Feature", "properties": {"ward_no": 26, "name": "Rajendranagar", "zone": 3, "zone_name": "Zone 3 \u00b7 MCC zonal office 3", "area_km2": 2.197, "population": 14284, "households": 3284, "waste_tpd": 7.93, "wet_share": 0.617, "dry_share": 0.343, "inert_share": 0.04, "density_t_km2": 3.61, "road_km": 30.8, "narrow_lane_factor": 1.079, "segregation_rate": 0.731, "centroid": [76.689023, 12.3025], "collection_points": 123}, "geometry": {"type": "Polygon", "coordinates": [[[76.6888707428703, 12.31034250381814], [76.69777002484916, 12.306078176199323], [76.69521244187806, 12.295678579592568], [76.68821177693212, 12.293989021418394], [76.68141085755379, 12.30062066559865], [76.68186083555943, 12.305634480371635], [76.6888707428703, 12.31034250381814]]]}}, {"type": "Feature", "properties": {"ward_no": 27, "name": "Vishweshwaranagar", "zone": 5, "zone_name": "Zone 5 \u00b7 MCC zonal office 5", "area_km2": 3.243, "population": 21996, "households": 5057, "waste_tpd": 11.86, "wet_share": 0.616, "dry_share": 0.344, "inert_share": 0.04, "density_t_km2": 3.66, "road_km": 40.6, "narrow_lane_factor": 1.043, "segregation_rate": 0.692, "centroid": [76.636902, 12.240888], "collection_points": 152}, "geometry": {"type": "Polygon", "coordinates": [[[76.62493090690495, 12.243915066595962], [76.62516266487806, 12.24549467306985], [76.62880779306461, 12.248396121169087], [76.64135437515885, 12.248017056388868], [76.64742471103735, 12.239370798197534], [76.64356772838569, 12.235863820244523], [76.63555688189808, 12.22788252378572], [76.62493090690495, 12.243915066595962]]]}}, {"type": "Feature", "properties": {"ward_no": 28, "name": "Nazarbad", "zone": 7, "zone_name": "Zone 7 \u00b7 MCC zonal office 7", "area_km2": 4.106, "population": 20461, "households": 4704, "waste_tpd": 10.85, "wet_share": 0.568, "dry_share": 0.392, "inert_share": 0.04, "density_t_km2": 2.64, "road_km": 63.4, "narrow_lane_factor": 1.056, "segregation_rate": 0.794, "centroid": [76.623055, 12.231711], "collection_points": 158}, "geometry": {"type": "Polygon", "coordinates": [[[76.63555688189808, 12.22788252378572], [76.63461180909172, 12.2269409371189], [76.6236228796005, 12.221114747712214], [76.61325914970114, 12.223446452037685], [76.60881790078376, 12.230689051526403], [76.62493090690495, 12.243915066595962], [76.63555688189808, 12.22788252378572]]]}}, {"type": "Feature", "properties": {"ward_no": 29, "name": "Lakshmipuram", "zone": 9, "zone_name": "Zone 9 \u00b7 MCC zonal office 9", "area_km2": 2.111, "population": 13721, "households": 3154, "waste_tpd": 7.62, "wet_share": 0.593, "dry_share": 0.367, "inert_share": 0.04, "density_t_km2": 3.61, "road_km": 31.9, "narrow_lane_factor": 1.097, "segregation_rate": 0.717, "centroid": [76.592671, 12.309806], "collection_points": 97}, "geometry": {"type": "Polygon", "coordinates": [[[76.59323024098153, 12.299864733322408], [76.5916897208447, 12.302250663028309], [76.58283840192338, 12.31138931690351], [76.58276003600768, 12.311509319485658], [76.59233131585225, 12.318471832995876], [76.60098821390896, 12.314412905300289], [76.60139350089906, 12.313120866602379], [76.59323024098153, 12.299864733322408]]]}}, {"type": "Feature", "properties": {"ward_no": 30, "name": "Chamarajapuram", "zone": 3, "zone_name": "Zone 3 \u00b7 MCC zonal office 3", "area_km2": 2.419, "population": 12802, "households": 2943, "waste_tpd": 6.88, "wet_share": 0.557, "dry_share": 0.403, "inert_share": 0.04, "density_t_km2": 2.84, "road_km": 28.7, "narrow_lane_factor": 1.046, "segregation_rate": 0.795, "centroid": [76.695079, 12.315138], "collection_points": 101}, "geometry": {"type": "Polygon", "coordinates": [[[76.69777002484916, 12.306078176199323], [76.6888707428703, 12.31034250381814], [76.6876558354867, 12.319997384222285], [76.69749557306795, 12.324421887927942], [76.69867510658293, 12.321126846258272], [76.70380127354925, 12.313550061817363], [76.70608326520501, 12.31056018838046], [76.69777002484916, 12.306078176199323]]]}}, {"type": "Feature", "properties": {"ward_no": 31, "name": "Agrahara", "zone": 5, "zone_name": "Zone 5 \u00b7 MCC zonal office 5", "area_km2": 2.034, "population": 18523, "households": 4258, "waste_tpd": 11.48, "wet_share": 0.601, "dry_share": 0.359, "inert_share": 0.04, "density_t_km2": 5.65, "road_km": 22.5, "narrow_lane_factor": 1.107, "segregation_rate": 0.554, "centroid": [76.648333, 12.267201], "collection_points": 130}, "geometry": {"type": "Polygon", "coordinates": [[[76.65032496580339, 12.258589654365982], [76.64607193023635, 12.258287185089205], [76.64128911953195, 12.262743451403372], [76.64131741293974, 12.27025759730815], [76.64439784367488, 12.27405104608413], [76.65394093369056, 12.273721271479726], [76.65559686290585, 12.27121738773049], [76.65032496580339, 12.258589654365982]]]}}, {"type": "Feature", "properties": {"ward_no": 32, "name": "Krishnamurthypuram", "zone": 4, "zone_name": "Zone 4 \u00b7 MCC zonal office 4", "area_km2": 2.393, "population": 16765, "households": 3854, "waste_tpd": 9.39, "wet_share": 0.612, "dry_share": 0.348, "inert_share": 0.04, "density_t_km2": 3.92, "road_km": 36.0, "narrow_lane_factor": 1.067, "segregation_rate": 0.701, "centroid": [76.59921, 12.323753], "collection_points": 126}, "geometry": {"type": "Polygon", "coordinates": [[[76.60694179522648, 12.322404112442907], [76.60098821390896, 12.314412905300289], [76.59233131585225, 12.318471832995876], [76.59086735774324, 12.328071893434899], [76.59336451494814, 12.331323851187895], [76.60373929295596, 12.331301703456695], [76.60694179522648, 12.322404112442907]]]}}, {"type": "Feature", "properties": {"ward_no": 33, "name": "Kalyanagiri", "zone": 4, "zone_name": "Zone 4 \u00b7 MCC zonal office 4", "area_km2": 2.782, "population": 15683, "households": 3605, "waste_tpd": 8.25, "wet_share": 0.592, "dry_share": 0.368, "inert_share": 0.04, "density_t_km2": 2.97, "road_km": 32.6, "narrow_lane_factor": 1.052, "segregation_rate": 0.745, "centroid": [76.584542, 12.335017], "collection_points": 101}, "geometry": {"type": "Polygon", "coordinates": [[[76.59336451494814, 12.331323851187895], [76.59086735774324, 12.328071893434899], [76.57466993161889, 12.328491124663106], [76.57418575982047, 12.334810787097618], [76.58129797463745, 12.342298473191914], [76.58991501113864, 12.344488683693498], [76.59336451494814, 12.331323851187895]]]}}, {"type": "Feature", "properties": {"ward_no": 34, "name": "Alanahalli", "zone": 1, "zone_name": "Zone 1 \u00b7 MCC zonal office 1", "area_km2": 1.243, "population": 10199, "households": 2345, "waste_tpd": 6.04, "wet_share": 0.634, "dry_share": 0.326, "inert_share": 0.04, "density_t_km2": 4.86, "road_km": 13.8, "narrow_lane_factor": 1.118, "segregation_rate": 0.692, "centroid": [76.671827, 12.314439], "collection_points": 66}, "geometry": {"type": "Polygon", "coordinates": [[[76.67003367428433, 12.321532552071881], [76.67721780111516, 12.318622001165332], [76.67634018491782, 12.309886480971752], [76.66818805315042, 12.308021950351964], [76.66594582180417, 12.310382208897868], [76.67003367428433, 12.321532552071881]]]}}, {"type": "Feature", "properties": {"ward_no": 35, "name": "Dattagalli", "zone": 8, "zone_name": "Zone 8 \u00b7 MCC zonal office 8", "area_km2": 1.621, "population": 15814, "households": 3635, "waste_tpd": 8.85, "wet_share": 0.59, "dry_share": 0.37, "inert_share": 0.04, "density_t_km2": 5.46, "road_km": 20.4, "narrow_lane_factor": 1.106, "segregation_rate": 0.699, "centroid": [76.631188, 12.328967], "collection_points": 129}, "geometry": {"type": "Polygon", "coordinates": [[[76.63345336203129, 12.336451297446184], [76.6373921182324, 12.330498307177622], [76.63335314964529, 12.320420507033633], [76.63248196317335, 12.319845584496097], [76.63186360920011, 12.319926218189597], [76.62371335162564, 12.327179579447224], [76.63000739059622, 12.336799284394003], [76.63345336203129, 12.336451297446184]]]}}, {"type": "Feature", "properties": {"ward_no": 36, "name": "Gayathripuram", "zone": 4, "zone_name": "Zone 4 \u00b7 MCC zonal office 4", "area_km2": 2.406, "population": 10707, "households": 2461, "waste_tpd": 5.73, "wet_share": 0.602, "dry_share": 0.358, "inert_share": 0.04, "density_t_km2": 2.38, "road_km": 28.5, "narrow_lane_factor": 1.056, "segregation_rate": 0.835, "centroid": [76.599243, 12.338869], "collection_points": 90}, "geometry": {"type": "Polygon", "coordinates": [[[76.60690611415941, 12.335162146074616], [76.60373929295596, 12.331301703456695], [76.59336451494814, 12.331323851187895], [76.58991501113864, 12.344488683693498], [76.5925403868648, 12.34515598102771], [76.60310584791671, 12.34637841605298], [76.60386435629452, 12.34663934183282], [76.60690611415941, 12.335162146074616]]]}}, {"type": "Feature", "properties": {"ward_no": 37, "name": "J P Nagar", "zone": 8, "zone_name": "Zone 8 \u00b7 MCC zonal office 8", "area_km2": 1.384, "population": 10597, "households": 2436, "waste_tpd": 6.15, "wet_share": 0.624, "dry_share": 0.336, "inert_share": 0.04, "density_t_km2": 4.44, "road_km": 19.5, "narrow_lane_factor": 1.215, "segregation_rate": 0.623, "centroid": [76.651316, 12.321574], "collection_points": 86}, "geometry": {"type": "Polygon", "coordinates": [[[76.64836934312667, 12.314603391697252], [76.64795941232279, 12.314748449582106], [76.64490727258065, 12.31988957811593], [76.64774136573809, 12.32830802172807], [76.65907675887318, 12.323523922408233], [76.6576776264413, 12.3193654275332], [76.64836934312667, 12.314603391697252]]]}}, {"type": "Feature", "properties": {"ward_no": 38, "name": "Kumbarakoppal", "zone": 2, "zone_name": "Zone 2 \u00b7 MCC zonal office 2", "area_km2": 2.168, "population": 16374, "households": 3764, "waste_tpd": 9.93, "wet_share": 0.631, "dry_share": 0.329, "inert_share": 0.04, "density_t_km2": 4.58, "road_km": 30.2, "narrow_lane_factor": 1.106, "segregation_rate": 0.501, "centroid": [76.613797, 12.281451], "collection_points": 122}, "geometry": {"type": "Polygon", "coordinates": [[[76.62069281991197, 12.286057348307347], [76.61767423590614, 12.272351033278845], [76.60893022220513, 12.273699397196152], [76.6053565472693, 12.28205113243703], [76.61052327329539, 12.289540770039936], [76.62069281991197, 12.286057348307347]]]}}, {"type": "Feature", "properties": {"ward_no": 39, "name": "Ittigegud", "zone": 3, "zone_name": "Zone 3 \u00b7 MCC zonal office 3", "area_km2": 1.886, "population": 16102, "households": 3702, "waste_tpd": 9.36, "wet_share": 0.591, "dry_share": 0.369, "inert_share": 0.04, "density_t_km2": 4.97, "road_km": 24.2, "narrow_lane_factor": 1.081, "segregation_rate": 0.622, "centroid": [76.679724, 12.292964], "collection_points": 127}, "geometry": {"type": "Polygon", "coordinates": [[[76.68368377846144, 12.284394891206873], [76.67253757538224, 12.289560554915633], [76.67394758846991, 12.296862542613919], [76.68141085755379, 12.30062066559865], [76.68821177693212, 12.293989021418394], [76.68368377846144, 12.284394891206873]]]}}, {"type": "Feature", "properties": {"ward_no": 40, "name": "Siddhartha Layout", "zone": 4, "zone_name": "Zone 4 \u00b7 MCC zonal office 4", "area_km2": 1.961, "population": 11909, "households": 2738, "waste_tpd": 6.76, "wet_share": 0.626, "dry_share": 0.334, "inert_share": 0.04, "density_t_km2": 3.45, "road_km": 21.6, "narrow_lane_factor": 1.119, "segregation_rate": 0.725, "centroid": [76.61204, 12.328371], "collection_points": 101}, "geometry": {"type": "Polygon", "coordinates": [[[76.60694179522648, 12.322404112442907], [76.60373929295596, 12.331301703456695], [76.60690611415941, 12.335162146074616], [76.61486152958848, 12.335342025150542], [76.61997174316905, 12.32706949107752], [76.61530690086518, 12.32137817884647], [76.60694179522648, 12.322404112442907]]]}}, {"type": "Feature", "properties": {"ward_no": 41, "name": "Vinayakanagar", "zone": 3, "zone_name": "Zone 3 \u00b7 MCC zonal office 3", "area_km2": 2.792, "population": 17611, "households": 4049, "waste_tpd": 9.4, "wet_share": 0.633, "dry_share": 0.327, "inert_share": 0.04, "density_t_km2": 3.37, "road_km": 42.7, "narrow_lane_factor": 1.086, "segregation_rate": 0.687, "centroid": [76.692815, 12.286785], "collection_points": 136}, "geometry": {"type": "Polygon", "coordinates": [[[76.68368377846144, 12.284394891206873], [76.68821177693212, 12.293989021418394], [76.69521244187806, 12.295678579592568], [76.70592662961384, 12.285871481009398], [76.69527242353192, 12.280400631060205], [76.68534513304468, 12.278224199082787], [76.68368377846144, 12.284394891206873]]]}}, {"type": "Feature", "properties": {"ward_no": 42, "name": "Shanthinagar", "zone": 9, "zone_name": "Zone 9 \u00b7 MCC zonal office 9", "area_km2": 1.972, "population": 19400, "households": 4460, "waste_tpd": 11.68, "wet_share": 0.585, "dry_share": 0.375, "inert_share": 0.04, "density_t_km2": 5.92, "road_km": 33.5, "narrow_lane_factor": 1.142, "segregation_rate": 0.596, "centroid": [76.610447, 12.315382], "collection_points": 147}, "geometry": {"type": "Polygon", "coordinates": [[[76.6183503380431, 12.312349301325176], [76.60885763745257, 12.307890844333215], [76.60139350089906, 12.313120866602379], [76.60098821390896, 12.314412905300289], [76.60694179522648, 12.322404112442907], [76.61530690086518, 12.32137817884647], [76.6183503380431, 12.312349301325176]]]}}, {"type": "Feature", "properties": {"ward_no": 43, "name": "Tilaknagar", "zone": 1, "zone_name": "Zone 1 \u00b7 MCC zonal office 1", "area_km2": 1.679, "population": 9692, "households": 2228, "waste_tpd": 5.48, "wet_share": 0.575, "dry_share": 0.385, "inert_share": 0.04, "density_t_km2": 3.26, "road_km": 19.0, "narrow_lane_factor": 1.06, "segregation_rate": 0.749, "centroid": [76.676259, 12.325377], "collection_points": 77}, "geometry": {"type": "Polygon", "coordinates": [[[76.67721780111516, 12.318622001165332], [76.67003367428433, 12.321532552071881], [76.66900478254237, 12.323079938476337], [76.67249154851613, 12.331955857310158], [76.68169386851518, 12.330470247825668], [76.68403852576132, 12.321715336738716], [76.67721780111516, 12.318622001165332]]]}}, {"type": "Feature", "properties": {"ward_no": 44, "name": "Subhashnagar", "zone": 8, "zone_name": "Zone 8 \u00b7 MCC zonal office 8", "area_km2": 1.488, "population": 16300, "households": 3747, "waste_tpd": 10.37, "wet_share": 0.634, "dry_share": 0.326, "inert_share": 0.04, "density_t_km2": 6.97, "road_km": 18.6, "narrow_lane_factor": 1.193, "segregation_rate": 0.539, "centroid": [76.64036, 12.315069], "collection_points": 134}, "geometry": {"type": "Polygon", "coordinates": [[[76.63335314964529, 12.320420507033633], [76.64490727258065, 12.31988957811593], [76.64795941232279, 12.314748449582106], [76.63945108716116, 12.308243355049674], [76.63572860349875, 12.309806415192897], [76.63248196317335, 12.319845584496097], [76.63335314964529, 12.320420507033633]]]}}, {"type": "Feature", "properties": {"ward_no": 45, "name": "Sathagalli", "zone": 2, "zone_name": "Zone 2 \u00b7 MCC zonal office 2", "area_km2": 1.536, "population": 27522, "households": 6327, "waste_tpd": 21.07, "wet_share": 0.584, "dry_share": 0.376, "inert_share": 0.04, "density_t_km2": 13.72, "road_km": 25.7, "narrow_lane_factor": 1.452, "segregation_rate": 0.531, "centroid": [76.635215, 12.302815], "collection_points": 196}, "geometry": {"type": "Polygon", "coordinates": [[[76.62654371277097, 12.30301150795384], [76.63572860349875, 12.309806415192897], [76.63945108716116, 12.308243355049674], [76.64255680260247, 12.300636489865328], [76.63697123862785, 12.295130475717576], [76.62654371277097, 12.30301150795384]]]}}, {"type": "Feature", "properties": {"ward_no": 46, "name": "Hootagalli", "zone": 1, "zone_name": "Zone 1 \u00b7 MCC zonal office 1", "area_km2": 1.359, "population": 10051, "households": 2311, "waste_tpd": 5.83, "wet_share": 0.632, "dry_share": 0.328, "inert_share": 0.04, "density_t_km2": 4.29, "road_km": 22.6, "narrow_lane_factor": 1.149, "segregation_rate": 0.649, "centroid": [76.66408, 12.317279], "collection_points": 87}, "geometry": {"type": "Polygon", "coordinates": [[[76.66196995066215, 12.311169240206567], [76.6576776264413, 12.3193654275332], [76.65907675887318, 12.323523922408233], [76.65971080854845, 12.32395830094159], [76.66900478254237, 12.323079938476337], [76.67003367428433, 12.321532552071881], [76.66594582180417, 12.310382208897868], [76.66196995066215, 12.311169240206567]]]}}, {"type": "Feature", "properties": {"ward_no": 47, "name": "Belavatha", "zone": 3, "zone_name": "Zone 3 \u00b7 MCC zonal office 3", "area_km2": 3.239, "population": 16125, "households": 3707, "waste_tpd": 8.54, "wet_share": 0.616, "dry_share": 0.344, "inert_share": 0.04, "density_t_km2": 2.64, "road_km": 44.4, "narrow_lane_factor": 1.054, "segregation_rate": 0.807, "centroid": [76.70386, 12.298851], "collection_points": 128}, "geometry": {"type": "Polygon", "coordinates": [[[76.69521244187806, 12.295678579592568], [76.69777002484916, 12.306078176199323], [76.70608326520501, 12.31056018838046], [76.71005742568347, 12.305353229442408], [76.71261865751639, 12.2958], [76.70736612060145, 12.286610648164219], [76.70592662961384, 12.285871481009398], [76.69521244187806, 12.295678579592568]]]}}, {"type": "Feature", "properties": {"ward_no": 48, "name": "Kergalli", "zone": 2, "zone_name": "Zone 2 \u00b7 MCC zonal office 2", "area_km2": 2.251, "population": 21035, "households": 4836, "waste_tpd": 12.78, "wet_share": 0.554, "dry_share": 0.406, "inert_share": 0.04, "density_t_km2": 5.68, "road_km": 37.3, "narrow_lane_factor": 1.153, "segregation_rate": 0.547, "centroid": [76.625016, 12.278981], "collection_points": 164}, "geometry": {"type": "Polygon", "coordinates": [[[76.62817211521059, 12.286562859597149], [76.63170284463979, 12.281333852173718], [76.63005015350096, 12.27343549770299], [76.62380586416899, 12.268503153971436], [76.62142362223433, 12.268696930317544], [76.61767423590614, 12.272351033278845], [76.62069281991197, 12.286057348307347], [76.62406977266384, 12.287627023243166], [76.62817211521059, 12.286562859597149]]]}}, {"type": "Feature", "properties": {"ward_no": 49, "name": "N R Mohalla", "zone": 8, "zone_name": "Zone 8 \u00b7 MCC zonal office 8", "area_km2": 1.378, "population": 14130, "households": 3248, "waste_tpd": 7.95, "wet_share": 0.577, "dry_share": 0.383, "inert_share": 0.04, "density_t_km2": 5.77, "road_km": 21.3, "narrow_lane_factor": 1.218, "segregation_rate": 0.549, "centroid": [76.640821, 12.325107], "collection_points": 100}, "geometry": {"type": "Polygon", "coordinates": [[[76.64706022062823, 12.330124944094878], [76.64774136573809, 12.32830802172807], [76.64490727258065, 12.31988957811593], [76.63335314964529, 12.320420507033633], [76.6373921182324, 12.330498307177622], [76.64706022062823, 12.330124944094878]]]}}, {"type": "Feature", "properties": {"ward_no": 50, "name": "Ghousia Nagar", "zone": 9, "zone_name": "Zone 9 \u00b7 MCC zonal office 9", "area_km2": 2.173, "population": 17666, "households": 4061, "waste_tpd": 10.03, "wet_share": 0.577, "dry_share": 0.383, "inert_share": 0.04, "density_t_km2": 4.62, "road_km": 31.2, "narrow_lane_factor": 1.111, "segregation_rate": 0.576, "centroid": [76.602359, 12.30384], "collection_points": 147}, "geometry": {"type": "Polygon", "coordinates": [[[76.59503866105487, 12.297063885043583], [76.59323024098153, 12.299864733322408], [76.60139350089906, 12.313120866602379], [76.60885763745257, 12.307890844333215], [76.60924744025175, 12.297349698829636], [76.60872370743004, 12.296519887784907], [76.59503866105487, 12.297063885043583]]]}}, {"type": "Feature", "properties": {"ward_no": 51, "name": "Tilak Nagar East", "zone": 8, "zone_name": "Zone 8 \u00b7 MCC zonal office 8", "area_km2": 1.819, "population": 13357, "households": 3071, "waste_tpd": 7.81, "wet_share": 0.569, "dry_share": 0.391, "inert_share": 0.04, "density_t_km2": 4.29, "road_km": 29.9, "narrow_lane_factor": 1.164, "segregation_rate": 0.539, "centroid": [76.622805, 12.319548], "collection_points": 88}, "geometry": {"type": "Polygon", "coordinates": [[[76.61997174316905, 12.32706949107752], [76.62371335162564, 12.327179579447224], [76.63186360920011, 12.319926218189597], [76.62038442944714, 12.311391178868034], [76.6183503380431, 12.312349301325176], [76.61530690086518, 12.32137817884647], [76.61997174316905, 12.32706949107752]]]}}, {"type": "Feature", "properties": {"ward_no": 52, "name": "Bamboo Bazaar", "zone": 6, "zone_name": "Zone 6 \u00b7 MCC zonal office 6", "area_km2": 1.872, "population": 23467, "households": 5395, "waste_tpd": 15.18, "wet_share": 0.64, "dry_share": 0.32, "inert_share": 0.04, "density_t_km2": 8.11, "road_km": 25.6, "narrow_lane_factor": 1.181, "segregation_rate": 0.473, "centroid": [76.648797, 12.280613], "collection_points": 200}, "geometry": {"type": "Polygon", "coordinates": [[[76.64371895724683, 12.285952174362613], [76.6507040592189, 12.288253288541048], [76.6564738540928, 12.281607592180828], [76.65394093369056, 12.273721271479726], [76.64439784367488, 12.27405104608413], [76.64171039845081, 12.281827227465886], [76.64371895724683, 12.285952174362613]]]}}, {"type": "Feature", "properties": {"ward_no": 53, "name": "Kyathamaranahalli", "zone": 2, "zone_name": "Zone 2 \u00b7 MCC zonal office 2", "area_km2": 1.92, "population": 17022, "households": 3913, "waste_tpd": 11.45, "wet_share": 0.581, "dry_share": 0.379, "inert_share": 0.04, "density_t_km2": 5.97, "road_km": 22.2, "narrow_lane_factor": 1.177, "segregation_rate": 0.503, "centroid": [76.61807, 12.293924], "collection_points": 123}, "geometry": {"type": "Polygon", "coordinates": [[[76.60924744025175, 12.297349698829636], [76.62312995510919, 12.300594156316356], [76.62406977266384, 12.287627023243166], [76.62069281991197, 12.286057348307347], [76.61052327329539, 12.289540770039936], [76.60872370743004, 12.296519887784907], [76.60924744025175, 12.297349698829636]]]}}, {"type": "Feature", "properties": {"ward_no": 54, "name": "Bharathi Nagar", "zone": 5, "zone_name": "Zone 5 \u00b7 MCC zonal office 5", "area_km2": 1.553, "population": 12615, "households": 2900, "waste_tpd": 7.28, "wet_share": 0.63, "dry_share": 0.33, "inert_share": 0.04, "density_t_km2": 4.68, "road_km": 24.1, "narrow_lane_factor": 1.093, "segregation_rate": 0.649, "centroid": [76.668064, 12.264033], "collection_points": 93}, "geometry": {"type": "Polygon", "coordinates": [[[76.67105744509871, 12.27305289503994], [76.67288592384132, 12.272384611556935], [76.67187308546683, 12.269812112579263], [76.67223798484332, 12.261212626172576], [76.67097717483983, 12.255127860838526], [76.6633156088894, 12.259065464200324], [76.66253787742288, 12.268945519123406], [76.67105744509871, 12.27305289503994]]]}}, {"type": "Feature", "properties": {"ward_no": 55, "name": "Mahadevapura", "zone": 5, "zone_name": "Zone 5 \u00b7 MCC zonal office 5", "area_km2": 1.766, "population": 9223, "households": 2120, "waste_tpd": 5.0, "wet_share": 0.584, "dry_share": 0.376, "inert_share": 0.04, "density_t_km2": 2.83, "road_km": 23.0, "narrow_lane_factor": 1.053, "segregation_rate": 0.66, "centroid": [76.662041, 12.252313], "collection_points": 59}, "geometry": {"type": "Polygon", "coordinates": [[[76.67097717483983, 12.255127860838526], [76.6704413175877, 12.252541772829387], [76.66499616378232, 12.247207401278475], [76.6577356387769, 12.245049985960783], [76.65707482688282, 12.244795934088932], [76.65484056844006, 12.25581009504682], [76.6633156088894, 12.259065464200324], [76.67097717483983, 12.255127860838526]]]}}, {"type": "Feature", "properties": {"ward_no": 56, "name": "Kanakadasa Nagar", "zone": 6, "zone_name": "Zone 6 \u00b7 MCC zonal office 6", "area_km2": 1.587, "population": 12177, "households": 2799, "waste_tpd": 7.56, "wet_share": 0.561, "dry_share": 0.399, "inert_share": 0.04, "density_t_km2": 4.77, "road_km": 22.2, "narrow_lane_factor": 1.19, "segregation_rate": 0.646, "centroid": [76.667135, 12.295395], "collection_points": 99}, "geometry": {"type": "Polygon", "coordinates": [[[76.67394758846991, 12.296862542613919], [76.67253757538224, 12.289560554915633], [76.66703300430537, 12.28652606019204], [76.65945279195257, 12.296829637367049], [76.6595626719937, 12.29720122074707], [76.66776988030716, 12.302080350168168], [76.67394758846991, 12.296862542613919]]]}}, {"type": "Feature", "properties": {"ward_no": 57, "name": "Hinkal", "zone": 8, "zone_name": "Zone 8 \u00b7 MCC zonal office 8", "area_km2": 1.783, "population": 10166, "households": 2337, "waste_tpd": 5.47, "wet_share": 0.574, "dry_share": 0.386, "inert_share": 0.04, "density_t_km2": 3.07, "road_km": 22.3, "narrow_lane_factor": 1.073, "segregation_rate": 0.69, "centroid": [76.63273, 12.344237], "collection_points": 66}, "geometry": {"type": "Polygon", "coordinates": [[[76.6256663465533, 12.341542953819319], [76.63029681707212, 12.353114351384747], [76.63559947495449, 12.350455421661904], [76.64085361832399, 12.343739352741956], [76.63345336203129, 12.336451297446184], [76.63000739059622, 12.336799284394003], [76.6256663465533, 12.341542953819319]]]}}, {"type": "Feature", "properties": {"ward_no": 58, "name": "Manasagangothri", "zone": 6, "zone_name": "Zone 6 \u00b7 MCC zonal office 6", "area_km2": 2.323, "population": 17777, "households": 4087, "waste_tpd": 10.48, "wet_share": 0.626, "dry_share": 0.334, "inert_share": 0.04, "density_t_km2": 4.51, "road_km": 37.7, "narrow_lane_factor": 1.078, "segregation_rate": 0.552, "centroid": [76.674586, 12.281877], "collection_points": 123}, "geometry": {"type": "Polygon", "coordinates": [[[76.68368377846144, 12.284394891206873], [76.68534513304468, 12.278224199082787], [76.6821658275527, 12.277527176854255], [76.67396438387847, 12.275123782398879], [76.67288592384132, 12.272384611556935], [76.67105744509871, 12.27305289503994], [76.66604047907326, 12.284310938645335], [76.66703300430537, 12.28652606019204], [76.67253757538224, 12.289560554915633], [76.68368377846144, 12.284394891206873]]]}}, {"type": "Feature", "properties": {"ward_no": 59, "name": "Kadakola North", "zone": 5, "zone_name": "Zone 5 \u00b7 MCC zonal office 5", "area_km2": 1.603, "population": 14572, "households": 3350, "waste_tpd": 8.15, "wet_share": 0.631, "dry_share": 0.329, "inert_share": 0.04, "density_t_km2": 5.09, "road_km": 22.2, "narrow_lane_factor": 1.128, "segregation_rate": 0.546, "centroid": [76.657848, 12.263228], "collection_points": 112}, "geometry": {"type": "Polygon", "coordinates": [[[76.66253787742288, 12.268945519123406], [76.6633156088894, 12.259065464200324], [76.65484056844006, 12.25581009504682], [76.65032496580339, 12.258589654365982], [76.65559686290585, 12.27121738773049], [76.66253787742288, 12.268945519123406]]]}}, {"type": "Feature", "properties": {"ward_no": 60, "name": "Vasanth Nagar", "zone": 7, "zone_name": "Zone 7 \u00b7 MCC zonal office 7", "area_km2": 3.626, "population": 16588, "households": 3813, "waste_tpd": 9.05, "wet_share": 0.633, "dry_share": 0.327, "inert_share": 0.04, "density_t_km2": 2.49, "road_km": 57.9, "narrow_lane_factor": 1.071, "segregation_rate": 0.834, "centroid": [76.612595, 12.244454], "collection_points": 134}, "geometry": {"type": "Polygon", "coordinates": [[[76.62516266487806, 12.24549467306985], [76.62493090690495, 12.243915066595962], [76.60881790078376, 12.230689051526403], [76.60681945765519, 12.233948027424947], [76.60478848707733, 12.24756645822147], [76.60437655188244, 12.25414524969483], [76.61348285977459, 12.2547523251919], [76.62516266487806, 12.24549467306985]]]}}, {"type": "Feature", "properties": {"ward_no": 61, "name": "Basaveshwara Nagar", "zone": 1, "zone_name": "Zone 1 \u00b7 MCC zonal office 1", "area_km2": 2.281, "population": 12572, "households": 2890, "waste_tpd": 6.79, "wet_share": 0.56, "dry_share": 0.4, "inert_share": 0.04, "density_t_km2": 2.98, "road_km": 27.2, "narrow_lane_factor": 1.055, "segregation_rate": 0.788, "centroid": [76.688947, 12.328775], "collection_points": 82}, "geometry": {"type": "Polygon", "coordinates": [[[76.68169386851518, 12.330470247825668], [76.68866561699494, 12.339616116120464], [76.6917909089703, 12.337727923528576], [76.69568806041559, 12.329471197195051], [76.69749557306795, 12.324421887927942], [76.6876558354867, 12.319997384222285], [76.68403852576132, 12.321715336738716], [76.68169386851518, 12.330470247825668]]]}}, {"type": "Feature", "properties": {"ward_no": 62, "name": "Ashraf Nagar", "zone": 5, "zone_name": "Zone 5 \u00b7 MCC zonal office 5", "area_km2": 2.225, "population": 13498, "households": 3103, "waste_tpd": 7.36, "wet_share": 0.615, "dry_share": 0.345, "inert_share": 0.04, "density_t_km2": 3.31, "road_km": 33.1, "narrow_lane_factor": 1.128, "segregation_rate": 0.646, "centroid": [76.63734, 12.255402], "collection_points": 98}, "geometry": {"type": "Polygon", "coordinates": [[[76.630942307155, 12.260070495139399], [76.64128911953195, 12.262743451403372], [76.64607193023635, 12.258287185089205], [76.64135437515885, 12.248017056388868], [76.62880779306461, 12.248396121169087], [76.630942307155, 12.260070495139399]]]}}, {"type": "Feature", "properties": {"ward_no": 63, "name": "Rajiv Gandhi Nagar", "zone": 4, "zone_name": "Zone 4 \u00b7 MCC zonal office 4", "area_km2": 1.914, "population": 12117, "households": 2786, "waste_tpd": 6.54, "wet_share": 0.554, "dry_share": 0.406, "inert_share": 0.04, "density_t_km2": 3.42, "road_km": 30.0, "narrow_lane_factor": 1.053, "segregation_rate": 0.803, "centroid": [76.611728, 12.342178], "collection_points": 86}, "geometry": {"type": "Polygon", "coordinates": [[[76.60386435629452, 12.34663934183282], [76.61127715481523, 12.349189333753017], [76.61394245610379, 12.350670467113115], [76.61921507347165, 12.341568003818002], [76.61486152958848, 12.335342025150542], [76.60690611415941, 12.335162146074616], [76.60386435629452, 12.34663934183282]]]}}, {"type": "Feature", "properties": {"ward_no": 64, "name": "Somanathapura", "zone": 2, "zone_name": "Zone 2 \u00b7 MCC zonal office 2", "area_km2": 1.467, "population": 13521, "households": 3108, "waste_tpd": 9.19, "wet_share": 0.577, "dry_share": 0.383, "inert_share": 0.04, "density_t_km2": 6.26, "road_km": 17.3, "narrow_lane_factor": 1.189, "segregation_rate": 0.562, "centroid": [76.636886, 12.276497], "collection_points": 94}, "geometry": {"type": "Polygon", "coordinates": [[[76.64439784367488, 12.27405104608413], [76.64131741293974, 12.27025759730815], [76.63005015350096, 12.27343549770299], [76.63170284463979, 12.281333852173718], [76.64171039845081, 12.281827227465886], [76.64439784367488, 12.27405104608413]]]}}, {"type": "Feature", "properties": {"ward_no": 65, "name": "Vijayashreepura", "zone": 1, "zone_name": "Zone 1 \u00b7 MCC zonal office 1", "area_km2": 1.972, "population": 11711, "households": 2692, "waste_tpd": 6.38, "wet_share": 0.56, "dry_share": 0.4, "inert_share": 0.04, "density_t_km2": 3.24, "road_km": 22.5, "narrow_lane_factor": 1.061, "segregation_rate": 0.755, "centroid": [76.678138, 12.337015], "collection_points": 90}, "geometry": {"type": "Polygon", "coordinates": [[[76.68169386851518, 12.330470247825668], [76.67249154851613, 12.331955857310158], [76.66818489421836, 12.339542235262552], [76.67212395674832, 12.341403101445064], [76.68379421782234, 12.342559245883173], [76.68866561699494, 12.339616116120464], [76.68169386851518, 12.330470247825668]]]}}]}